{
  "type": "FeatureCollection",
  "features": [
    {
      "type": "Feature",
      "properties": {
        "norad_id": 54741,
        "name": "GALAXY 35 (G-35)",
        "group": "intelsat",
        "lat": -0.00815151229737749,
        "lon": -120.26085811927258,
        "alt_km": 35776.1801748499,
        "timestamp": "2025-12-09T16:56:36.248381+00:00",
        "meta_object_name": "GALAXY 35 (G-35)",
        "meta_object_id": "2022-170A",
        "meta_epoch": "2025-12-09T12:23:46.557312",
        "meta_mean_motion": 1.00271041,
        "meta_eccentricity": 0.0002644,
        "meta_inclination": 0.0265,
        "meta_ra_of_asc_node": 90.9094,
        "meta_arg_of_pericenter": 174.1639,
        "meta_mean_anomaly": 266.2888,
        "meta_ephemeris_type": 0,
        "meta_classification_type": "U",
        "meta_norad_cat_id": 54741,
        "meta_element_set_no": 999,
        "meta_rev_at_epoch": 1099,
        "meta_bstar": 0,
        "meta_mean_motion_dot": -1.6e-06,
        "meta_mean_motion_ddot": 0,
        "tle_line1": "1 54741U 22170A   25343.51651108 -.00000160  00000+0  00000+0 0  9993",
        "tle_line2": "2 54741   0.0265  90.9094 0002644 174.1639 266.2888  1.00271041 10999"
      },
      "geometry": {
        "type": "Point",
        "coordinates": [
          -120.26085811927258,
          -0.00815151229737749
        ]
      }
    },
    {
      "type": "Feature",
      "properties": {
        "norad_id": 54742,
        "name": "GALAXY 36 (G-36)",
        "group": "intelsat",
        "lat": -0.0196740269533691,
        "lon": -116.16812143813173,
        "alt_km": 35784.581740662856,
        "timestamp": "2025-12-09T16:56:36.248392+00:00",
        "meta_object_name": "GALAXY 36 (G-36)",
        "meta_object_id": "2022-170B",
        "meta_epoch": "2025-12-09T12:25:42.117312",
        "meta_mean_motion": 1.00270711,
        "meta_eccentricity": 5.69e-05,
        "meta_inclination": 0.009,
        "meta_ra_of_asc_node": 28.1287,
        "meta_arg_of_pericenter": 256.8245,
        "meta_mean_anomaly": 250.976,
        "meta_ephemeris_type": 0,
        "meta_classification_type": "U",
        "meta_norad_cat_id": 54742,
        "meta_element_set_no": 999,
        "meta_rev_at_epoch": 1087,
        "meta_bstar": 0,
        "meta_mean_motion_dot": -1.83e-06,
        "meta_mean_motion_ddot": 0,
        "tle_line1": "1 54742U 22170B   25343.51784858 -.00000183  00000+0  00000+0 0  9998",
        "tle_line2": "2 54742   0.0090  28.1287 0000569 256.8245 250.9760  1.00270711 10877"
      },
      "geometry": {
        "type": "Point",
        "coordinates": [
          -116.16812143813173,
          -0.0196740269533691
        ]
      }
    },
    {
      "type": "Feature",
      "properties": {
        "norad_id": 57493,
        "name": "GALAXY 37 (G-37)",
        "group": "intelsat",
        "lat": -0.021309939402291134,
        "lon": -154.17904710286493,
        "alt_km": 35780.89983397097,
        "timestamp": "2025-12-09T16:56:36.248404+00:00",
        "meta_object_name": "GALAXY 37 (G-37)",
        "meta_object_id": "2023-112A",
        "meta_epoch": "2025-12-09T12:05:36.807936",
        "meta_mean_motion": 1.00271664,
        "meta_eccentricity": 0.0002331,
        "meta_inclination": 0.0107,
        "meta_ra_of_asc_node": 342.8709,
        "meta_arg_of_pericenter": 281.1569,
        "meta_mean_anomaly": 228.8725,
        "meta_ephemeris_type": 0,
        "meta_classification_type": "U",
        "meta_norad_cat_id": 57493,
        "meta_element_set_no": 999,
        "meta_rev_at_epoch": 864,
        "meta_bstar": 0,
        "meta_mean_motion_dot": 5e-07,
        "meta_mean_motion_ddot": 0,
        "tle_line1": "1 57493U 23112A   25343.50389824  .00000050  00000+0  00000+0 0  9996",
        "tle_line2": "2 57493   0.0107 342.8709 0002331 281.1569 228.8725  1.00271664  8641"
      },
      "geometry": {
        "type": "Point",
        "coordinates": [
          -154.17904710286493,
          -0.021309939402291134
        ]
      }
    }
  ]
}